YUZGU 12 (RS6S)         
1 53311U 98067TW  22261.13817051  .00051256  00000+0  76111-3 0  9999
2 53311  51.6390 235.1787 0001599 151.2521 208.8558 15.54678414  9159
TSIOLKOVSKY-RYAZAN 1 (*)
1 53312U 98067TX  22261.14056957  .00050585  00000+0  75581-3 0  9995
2 53312  51.6395 235.1961 0000848 226.0479 134.0442 15.54514873  9091
TSIOLKOVSKY-RYAZAN 2 (*)
1 53313U 98067TY  22261.13898977  .00051054  00000+0  76121-3 0  9994
2 53313  51.6394 235.1859 0000351 219.0392 141.0574 15.54568716  9147
YUZGU 10 (RS4S)         
1 53321U 98067TZ  22261.14499755  .00051402  00000+0  77066-3 0  9991
2 53321  51.6398 235.2285 0000980 173.7978 186.3025 15.54414143  9145
RS29S (SXC3-2110 CYCLO*)
1 53373U 22096D   22261.17075663  .00011529  00000+0  46435-3 0  9990
2 53373  97.4320 162.3410 0003626  66.2862  92.1953 15.25011570  6071
RS32S (SXC3-212 MONITO*)
1 53374U 22096E   22261.15803558  .00011728  00000+0  47075-3 0  9993
2 53374  97.4309 162.3344 0003428  60.4525  43.6787 15.25125242  6075
RS34S (SXC3-218 KUZBAS*)
1 53375U 22096F   22261.16829454  .00009955  00000+0  40074-3 0  9999
2 53375  97.4313 162.3441 0003395  60.8937  98.8238 15.25069959  6078
RS23S (SXC3-21 UTMN)    
1 53376U 22096G   22261.09227873  .00009632  00000+0  38771-3 0  9992
2 53376  97.4313 162.2713 0003407  56.8918  50.4505 15.25084542  6063
RS28S (SXC3-214 MIET-A*)
1 53377U 22096H   22261.09154612  .00009674  00000+0  38890-3 0  9991
2 53377  97.4311 162.2715 0003394  58.4807  49.2375 15.25125215  6068
RS26S (KAI-1)           
1 53378U 22096J   22261.15595418  .00008528  00000+0  34337-3 0  9991
2 53378  97.4311 162.3364 0003091  54.0573  50.0498 15.25111039  6072
RS19S (SXC3-219 ISOI)   
1 53381U 22096M   22261.21913333  .00009793  00000+0  38848-3 0  9998
2 53381  97.4317 162.4251 0003127 339.8340 171.2333 15.25568670  6086
RS21S (CUBESX-HSE-2)    
1 53383U 22096P   22261.07923162  .00009490  00000+0  37601-3 0  9995
2 53383  97.4314 162.2894 0003332 337.7952 133.6963 15.25615682  6065
RS30S (SXC3-217 SIREN)  
1 53384U 22096Q   22261.07939447  .00009013  00000+0  35735-3 0  9996
2 53384  97.4321 162.2904 0003291 336.9550 137.4570 15.25611796  6063
RS20S (GEOSCAN-EDELVEIS)
1 53385U 22096R   22261.07402753  .00011525  00000+0  45217-3 0  9999
2 53385  97.4313 162.2970 0003772 337.2556 134.8135 15.25890137  6091
RS33S (SXC3-215 VIZARD) 
1 53386U 22096S   22261.20586047  .00014315  00000+0  55522-3 0  9994
2 53386  97.4313 162.4421 0004361 331.6629 179.9205 15.26219875  6104
NOAA 15                 
1 25338U 98030A   22261.09912514  .00000114  00000+0  65746-4 0  9992
2 25338  98.6390 289.3995 0010869  33.2411 326.9450 14.26171335266478
NOAA 18                 
1 28654U 05018A   22261.12576496  .00000156  00000+0  10769-3 0  9999
2 28654  98.9419 331.4587 0015181  71.7648 288.5174 14.12776756893154
NOAA 19                 
1 33591U 09005A   22261.06668327  .00000108  00000+0  83236-4 0  9990
2 33591  99.1412 297.1193 0012958 289.1554  70.8214 14.12609966701521
METOP-B                 
1 38771U 12049A   22261.18787476  .00000057  00000+0  46138-4 0  9990
2 38771  98.7205 319.5392 0001793 105.6255 320.5439 14.21473731518907
SARAL                   
1 39086U 13009A   22260.89748343  .00000073  00000+0  43308-4 0  9998
2 39086  98.5495  85.1743 0001597  42.5998 317.5309 14.32062624499713
METOP-C                 
1 43689U 18087A   22261.14147012  .00000052  00000+0  43850-4 0  9997
2 43689  98.6752 319.5862 0003703 122.3915 237.7621 14.21507782200477
ANGELS                  
1 44876U 19092D   22260.54625706  .00002643  00000+0  13193-3 0  9991
2 44876  97.4774  82.8161 0012992  43.0322 317.1925 15.18307898152211
BEIDOU 3 (C01)          
1 36287U 10001A   22260.87416339 -.00000286  00000+0  00000+0 0  9996
2 36287   1.6680  46.7777 0001158   9.8993  35.2848  1.00272676 46449
BEIDOU 5 (C06)          
1 36828U 10036A   22261.17263579 -.00000150  00000+0  00000+0 0  9995
2 36828  54.2000 175.3818 0030248 187.8872 163.9840  1.00271893 44506
BEIDOU 6 (C04)          
1 37210U 10057A   22260.89270087 -.00000118  00000+0  00000+0 0  9998
2 37210   0.7283  37.5454 0007142 149.4330 291.2128  1.00270581 43568
BEIDOU 7 (C07)          
1 37256U 10068A   22260.61036733 -.00000169  00000+0  00000+0 0  9994
2 37256  50.0472 288.5421 0024131 204.0303 191.8264  1.00278036 43078
BEIDOU 8 (C08)          
1 37384U 11013A   22261.26749772 -.00000157  00000+0  00000+0 0  9990
2 37384  60.4288  53.3409 0024091 177.6249 330.6268  1.00282826 41957
BEIDOU 9 (C09)          
1 37763U 11038A   22260.78698421 -.00000096  00000+0  00000+0 0  9990
2 37763  54.4818 177.8875 0099045 227.9293 328.6888  1.00261843 40925
BEIDOU 10 (C10)         
1 37948U 11073A   22260.88775363 -.00000121  00000+0  00000+0 0  9995
2 37948  50.1647 288.1840 0086894 219.5630 264.7520  1.00273171 39682
BEIDOU 11 (C05)         
1 38091U 12008A   22260.92098093  .00000050  00000+0  00000+0 0  9997
2 38091   1.7667  69.5345 0011110 343.1017 334.4627  1.00274344 38752
BEIDOU 12 (C11)         
1 38250U 12018A   22259.84008007 -.00000118  00000+0  00000+0 0  9996
2 38250  56.6665 350.5426 0022784 249.7560  31.6275  1.86234296 70782
BEIDOU 13 (C12)         
1 38251U 12018B   22260.65296766 -.00000117  00000+0  00000+0 0  9998
2 38251  56.5826 349.8336 0013791 248.9558 261.5935  1.86234070 70808
BEIDOU 15 (C14)         
1 38775U 12050B   22260.67770096 -.00000014  00000+0  00000+0 0  9996
2 38775  55.4524 108.5811 0012099 333.1988  29.8556  1.86231374 68180
BEIDOU 16 (C02)         
1 38953U 12059A   22261.07829174 -.00000183  00000+0  00000+0 0  9997
2 38953   1.1493  81.2883 0023844 295.5925  92.4573  1.00272861 36338
BEIDOU 17 (C31)         
1 40549U 15019A   22260.97531421 -.00000161  00000+0  00000+0 0  9999
2 40549  51.7256 311.6826 0038711 197.6976 294.4674  1.00277309 27365
BEIDOU 18 (C57)         
1 40748U 15037A   22261.19535630 -.00000115  00000+0  00000+0 0  9990
2 40748  55.8314 348.6265 0001522  50.5697  12.9509  1.86233378 48646
BEIDOU 19 (C58)         
1 40749U 15037B   22260.59232899 -.00000117  00000+0  00000+0 0  9997
2 40749  55.8353 348.6365 0002841 303.3209 210.0987  1.86232989 48620
BEIDOU 20 (C18)         
1 40938U 15053A   22260.50655833 -.00000098  00000+0  00000+0 0  9991
2 40938  51.3592 274.8114 0046464 199.6545 160.8759  1.00272295 25631
BEIDOU IGSO-6 (C13)     
1 41434U 16021A   22260.88591381 -.00000130  00000+0  00000+0 0  9994
2 41434  58.2369  51.8774 0045002 214.9643 143.9509  1.00265073 23755
BEIDOU-2 G7 (C03)       
1 41586U 16037A   22260.91438454 -.00000360  00000+0  00000+0 0  9999
2 41586   1.5758  67.8730 0007729 354.3553  14.3289  1.00274082 23079
BEIDOU-3 M1 (C19)       
1 43001U 17069A   22260.71101149 -.00000013  00000+0  00000+0 0  9990
2 43001  55.6059 108.5923 0008092 296.9674 244.7753  1.86231738 33119
BEIDOU-3 M2 (C20)       
1 43002U 17069B   22260.86779069 -.00000011  00000+0  00000+0 0  9997
2 43002  55.6054 108.6227 0006567 326.0372   3.7059  1.86231291 33103
BEIDOU-3 M3 (C27)       
1 43107U 18003A   22260.65884760 -.00000118  00000+0  00000+0 0  9992
2 43107  55.2832 349.5207 0004071  72.2977 283.6242  1.86232495 31863
BEIDOU-3 M4 (C28)       
1 43108U 18003B   22261.14228432 -.00000117  00000+0  00000+0 0  9995
2 43108  55.2767 349.4931 0003407 234.6924 128.7177  1.86230919 31889
BEIDOU-3 M5 (C21)       
1 43207U 18018A   22260.50785410 -.00000015  00000+0  00000+0 0  9991
2 43207  55.5648 108.7098 0004811   3.5257 356.5562  1.86231643 31257
BEIDOU-3 M6 (C22)       
1 43208U 18018B   22260.03757919 -.00000018  00000+0  00000+0 0  9996
2 43208  55.5640 108.7308 0006183 313.0015  47.0243  1.86231608 31247
BEIDOU-3 M7 (C29)       
1 43245U 18029A   22259.81649997 -.00000118  00000+0  00000+0 0  9990
2 43245  55.1941 347.3118 0000985 190.6010 231.0628  1.86232697 30392
BEIDOU-3 M8 (C30)       
1 43246U 18029B   22260.80429722 -.00000116  00000+0  10000-3 0  9997
2 43246  55.1905 347.3072 0002735   1.7874  48.7614  1.86232923 30409
BEIDOU IGSO-7 (C16)     
1 43539U 18057A   22260.76317499 -.00000154  00000+0  00000+0 0  9992
2 43539  55.0901 174.9148 0052476 228.2655 342.3763  1.00282499 15430
BEIDOU-3 M9 (C23)       
1 43581U 18062A   22261.09721929  .00000034  00000+0  00000+0 0  9995
2 43581  54.2544 228.9126 0005966 275.9058 182.2951  1.86231920 28155
BEIDOU-3 M10 (C24)      
1 43582U 18062B   22260.58542031  .00000036  00000+0  00000+0 0  9996
2 43582  54.2533 228.9196 0005282 339.7211 227.2284  1.86232374 28144
BEIDOU-3 M11 (C25)      
1 43602U 18067A   22260.95989745  .00000033  00000+0  00000+0 0  9999
2 43602  54.3374 227.5302 0006935   1.3625 137.8604  1.86231549 27641
BEIDOU-3 M12 (C26)      
1 43603U 18067B   22260.49078758  .00000036  00000+0  00000+0 0  9995
2 43603  54.3343 227.5129 0004245 343.5116 111.5505  1.86231494 27652
BEIDOU-3 M13 (C32)      
1 43622U 18072A   22260.84323795 -.00000012  00000+0  00000+0 0  9990
2 43622  55.5316 108.2504 0004772 292.9434  67.4689  1.86231766 27174
BEIDOU-3 M14 (C33)      
1 43623U 18072B   22260.60399118 -.00000014  00000+0  00000+0 0  9999
2 43623  55.5338 108.2506 0003396 334.9730 315.2776  1.86231806 27163
BEIDOU-3 M15 (C34)      
1 43647U 18078A   22260.35606725 -.00000118  00000+0  10000-3 0  9998
2 43647  55.0884 347.4433 0005078   3.9038  15.7689  1.86233056 26678
BEIDOU-3 M16 (C35)      
1 43648U 18078B   22259.77883155 -.00000119  00000+0  00000+0 0  9993
2 43648  55.0850 347.4702 0003182  27.2237 233.0543  1.86232311 26672
BEIDOU-3 G1 (C59)       
1 43683U 18085A   22260.94584208 -.00000284  00000+0  00000+0 0  9991
2 43683   0.9931 151.8484 0004331  44.6365 280.9491  1.00273808 14331
BEIDOU-3 M17 (C36)      
1 43706U 18093A   22260.61513265  .00000036  00000+0  00000+0 0  9999
2 43706  54.3366 228.8214 0010785 277.0902  82.7658  1.86232099 26053
